{
  "type": "FeatureCollection",
  "features": [
    {
      "type": "Feature",
      "properties": {
        "norad_id": 34924,
        "name": "COSMOS 2251 DEB",
        "group": "cosmos-2251-debris",
        "lat": -35.068388933313535,
        "lon": -88.81333352575736,
        "alt_km": 676.0436690480101,
        "timestamp": "2025-12-17T21:39:46.085005+00:00",
        "meta_object_name": "COSMOS 2251 DEB",
        "meta_object_id": "1993-036ADV",
        "meta_epoch": "2025-12-17T06:01:08.300064",
        "meta_mean_motion": 14.600743,
        "meta_eccentricity": 0.0053968,
        "meta_inclination": 74.0413,
        "meta_ra_of_asc_node": 80.8415,
        "meta_arg_of_pericenter": 164.4224,
        "meta_mean_anomaly": 226.9122,
        "meta_ephemeris_type": 0,
        "meta_classification_type": "U",
        "meta_norad_cat_id": 34924,
        "meta_element_set_no": 999,
        "meta_rev_at_epoch": 87789,
        "meta_bstar": 0.00072655222,
        "meta_mean_motion_dot": 3.535e-05,
        "meta_mean_motion_ddot": 0,
        "tle_line1": "1 34924U 93036ADV 25351.25079051  .00003535  00000+0  72655-3 0  9991",
        "tle_line2": "2 34924  74.0413  80.8415 0053968 164.4224 226.9122 14.60074300877891"
      },
      "geometry": {
        "type": "Point",
        "coordinates": [
          -88.81333352575736,
          -35.068388933313535
        ]
      }
    },
    {
      "type": "Feature",
      "properties": {
        "norad_id": 34944,
        "name": "COSMOS 2251 DEB",
        "group": "cosmos-2251-debris",
        "lat": -11.777177074657608,
        "lon": 46.21162941041039,
        "alt_km": 932.7272997447299,
        "timestamp": "2025-12-17T21:39:46.085014+00:00",
        "meta_object_name": "COSMOS 2251 DEB",
        "meta_object_id": "1993-036ADX",
        "meta_epoch": "2025-12-17T02:06:11.847168",
        "meta_mean_motion": 14.14195665,
        "meta_eccentricity": 0.02198727,
        "meta_inclination": 73.7495,
        "meta_ra_of_asc_node": 224.195,
        "meta_arg_of_pericenter": 70.8954,
        "meta_mean_anomaly": 291.5851,
        "meta_ephemeris_type": 0,
        "meta_classification_type": "U",
        "meta_norad_cat_id": 34944,
        "meta_element_set_no": 999,
        "meta_rev_at_epoch": 64144,
        "meta_bstar": 0.00030334686,
        "meta_mean_motion_dot": 7.03e-06,
        "meta_mean_motion_ddot": 0,
        "tle_line1": "1 34944U 93036ADX 25351.08763712  .00000703  00000+0  30335-3 0  9991",
        "tle_line2": "2 34944  73.7495 224.1950 0219872  70.8954 291.5851 14.14195665641448"
      },
      "geometry": {
        "type": "Point",
        "coordinates": [
          46.21162941041039,
          -11.777177074657608
        ]
      }
    },
    {
      "type": "Feature",
      "properties": {
        "norad_id": 34946,
        "name": "COSMOS 2251 DEB",
        "group": "cosmos-2251-debris",
        "lat": 72.55543310638681,
        "lon": 86.48675676824772,
        "alt_km": 645.4998007881013,
        "timestamp": "2025-12-17T21:39:46.085023+00:00",
        "meta_object_name": "COSMOS 2251 DEB",
        "meta_object_id": "1993-036ADZ",
        "meta_epoch": "2025-12-11T09:12:32.820480",
        "meta_mean_motion": 14.61985522,
        "meta_eccentricity": 0.0048688,
        "meta_inclination": 74.0237,
        "meta_ra_of_asc_node": 344.7115,
        "meta_arg_of_pericenter": 122.3418,
        "meta_mean_anomaly": 238.2476,
        "meta_ephemeris_type": 0,
        "meta_classification_type": "U",
        "meta_norad_cat_id": 34946,
        "meta_element_set_no": 999,
        "meta_rev_at_epoch": 88189,
        "meta_bstar": 0.00095647955,
        "meta_mean_motion_dot": 4.849e-05,
        "meta_mean_motion_ddot": 0,
        "tle_line1": "1 34946U 93036ADZ 25345.38371320  .00004849  00000+0  95648-3 0  9992",
        "tle_line2": "2 34946  74.0237 344.7115 0048688 122.3418 238.2476 14.61985522881890"
      },
      "geometry": {
        "type": "Point",
        "coordinates": [
          86.48675676824772,
          72.55543310638681
        ]
      }
    },
    {
      "type": "Feature",
      "properties": {
        "norad_id": 34949,
        "name": "COSMOS 2251 DEB",
        "group": "cosmos-2251-debris",
        "lat": -35.68920949511391,
        "lon": -68.54825600308726,
        "alt_km": 603.5952025028346,
        "timestamp": "2025-12-17T21:39:46.085032+00:00",
        "meta_object_name": "COSMOS 2251 DEB",
        "meta_object_id": "1993-036AEC",
        "meta_epoch": "2025-12-16T00:41:42.487008",
        "meta_mean_motion": 14.74023339,
        "meta_eccentricity": 0.00802648,
        "meta_inclination": 74.0185,
        "meta_ra_of_asc_node": 103.231,
        "meta_arg_of_pericenter": 247.8557,
        "meta_mean_anomaly": 111.4083,
        "meta_ephemeris_type": 0,
        "meta_classification_type": "U",
        "meta_norad_cat_id": 34949,
        "meta_element_set_no": 999,
        "meta_rev_at_epoch": 88410,
        "meta_bstar": 0.00040106171,
        "meta_mean_motion_dot": 2.742e-05,
        "meta_mean_motion_ddot": 0,
        "tle_line1": "1 34949U 93036AEC 25350.02896397  .00002742  00000+0  40106-3 0  9997",
        "tle_line2": "2 34949  74.0185 103.2310 0080264 247.8557 111.4083 14.74023339884109"
      },
      "geometry": {
        "type": "Point",
        "coordinates": [
          -68.54825600308726,
          -35.68920949511391
        ]
      }
    },
    {
      "type": "Feature",
      "properties": {
        "norad_id": 34953,
        "name": "COSMOS 2251 DEB",
        "group": "cosmos-2251-debris",
        "lat": 71.23055792107886,
        "lon": 140.47873847813227,
        "alt_km": 658.2036710417142,
        "timestamp": "2025-12-17T21:39:46.085041+00:00",
        "meta_object_name": "COSMOS 2251 DEB",
        "meta_object_id": "1993-036AEG",
        "meta_epoch": "2025-12-17T08:12:02.475648",
        "meta_mean_motion": 14.68997686,
        "meta_eccentricity": 0.00582899,
        "meta_inclination": 74.0933,
        "meta_ra_of_asc_node": 18.6118,
        "meta_arg_of_pericenter": 9.3224,
        "meta_mean_anomaly": 4.9291,
        "meta_ephemeris_type": 0,
        "meta_classification_type": "U",
        "meta_norad_cat_id": 34953,
        "meta_element_set_no": 999,
        "meta_rev_at_epoch": 88196,
        "meta_bstar": 0.00057825392,
        "meta_mean_motion_dot": 3.448e-05,
        "meta_mean_motion_ddot": 0,
        "tle_line1": "1 34953U 93036AEG 25351.34169532  .00003448  00000+0  57825-3 0  9992",
        "tle_line2": "2 34953  74.0933  18.6118 0058289   9.3224   4.9291 14.68997686881960"
      },
      "geometry": {
        "type": "Point",
        "coordinates": [
          140.47873847813227,
          71.23055792107886
        ]
      }
    },
    {
      "type": "Feature",
      "properties": {
        "norad_id": 34955,
        "name": "COSMOS 2251 DEB",
        "group": "cosmos-2251-debris",
        "lat": 70.50592156351217,
        "lon": 2.051386154860623,
        "alt_km": 607.0824921746434,
        "timestamp": "2025-12-17T21:39:46.085050+00:00",
        "meta_object_name": "COSMOS 2251 DEB",
        "meta_object_id": "1993-036AEJ",
        "meta_epoch": "2025-12-11T10:00:38.398176",
        "meta_mean_motion": 15.00495775,
        "meta_eccentricity": 0.00779991,
        "meta_inclination": 74.0375,
        "meta_ra_of_asc_node": 249.1952,
        "meta_arg_of_pericenter": 319.1032,
        "meta_mean_anomaly": 40.4318,
        "meta_ephemeris_type": 0,
        "meta_classification_type": "U",
        "meta_norad_cat_id": 34955,
        "meta_element_set_no": 999,
        "meta_rev_at_epoch": 90014,
        "meta_bstar": 0.0014966224,
        "meta_mean_motion_dot": 0.00020131,
        "meta_mean_motion_ddot": 0,
        "tle_line1": "1 34955U 93036AEJ 25345.41711109  .00020131  00000+0  14966-2 0  9994",
        "tle_line2": "2 34955  74.0375 249.1952 0077999 319.1032  40.4318 15.00495775900143"
      },
      "geometry": {
        "type": "Point",
        "coordinates": [
          2.051386154860623,
          70.50592156351217
        ]
      }
    },
    {
      "type": "Feature",
      "properties": {
        "norad_id": 34962,
        "name": "COSMOS 2251 DEB",
        "group": "cosmos-2251-debris",
        "lat": -32.579692302551386,
        "lon": 173.17592824400654,
        "alt_km": 731.1308096018502,
        "timestamp": "2025-12-17T21:39:46.085059+00:00",
        "meta_object_name": "COSMOS 2251 DEB",
        "meta_object_id": "1993-036AER",
        "meta_epoch": "2025-12-16T14:16:58.944288",
        "meta_mean_motion": 14.4652884,
        "meta_eccentricity": 0.0018797,
        "meta_inclination": 74.029,
        "meta_ra_of_asc_node": 186.1625,
        "meta_arg_of_pericenter": 299.0905,
        "meta_mean_anomaly": 60.8371,
        "meta_ephemeris_type": 0,
        "meta_classification_type": "U",
        "meta_norad_cat_id": 34962,
        "meta_element_set_no": 999,
        "meta_rev_at_epoch": 87634,
        "meta_bstar": 0.00032902172,
        "meta_mean_motion_dot": 1.16e-05,
        "meta_mean_motion_ddot": 0,
        "tle_line1": "1 34962U 93036AER 25350.59512667  .00001160  00000+0  32902-3 0  9997",
        "tle_line2": "2 34962  74.0290 186.1625 0018797 299.0905  60.8371 14.46528840876348"
      },
      "geometry": {
        "type": "Point",
        "coordinates": [
          173.17592824400654,
          -32.579692302551386
        ]
      }
    }
  ]
}